[{"OBJECT_NAME":"STARLINK-4109","OBJECT_ID":"2022-086AC","EPOCH":"2026-03-09T15:42:22.980960","MEAN_MOTION":15.08835634,"ECCENTRICITY":9.968e-5,"INCLINATION":53.2189,"RA_OF_ASC_NODE":194.2802,"ARG_OF_PERICENTER":89.623,"MEAN_ANOMALY":270.4877,"EPHEMERIS_TYPE":0,"CLASSIFICATION_TYPE":"U","NORAD_CAT_ID":53268,"ELEMENT_SET_NO":999,"REV_AT_EPOCH":20106,"BSTAR":3.1059593e-5,"MEAN_MOTION_DOT":2.07e-6,"MEAN_MOTION_DDOT":0},{"OBJECT_NAME":"DELTA 1 DEB","OBJECT_ID":"1972-058BG","EPOCH":"2026-03-09T20:01:49.581696","MEAN_MOTION":14.88535429,"ECCENTRICITY":0.00965988,"INCLINATION":98.8237,"RA_OF_ASC_NODE":167.9558,"ARG_OF_PERICENTER":346.289,"MEAN_ANOMALY":13.5703,"EPHEMERIS_TYPE":0,"CLASSIFICATION_TYPE":"U","NORAD_CAT_ID":7890,"ELEMENT_SET_NO":999,"REV_AT_EPOCH":62566,"BSTAR":0.0011014398,"MEAN_MOTION_DOT":0.00011112,"MEAN_MOTION_DDOT":0}]
